CZ-6A DEB               
1 60791U 24140FS  24248.73378220  .00003345  00000+0  17704-2 0  9991
2 60791  88.8574 347.2501 0081233 148.2006 212.4122 14.11827431  3341
CZ-6A DEB               
1 60792U 24140FT  24248.71591168  .00006203  00000+0  83638-3 0  9994
2 60792  89.0873 347.9774 0183097 317.2852  41.4250 14.68005923  3465
CZ-6A DEB               
1 60793U 24140FU  24248.75858740  .00000622  00000+0  31247-3 0  9999
2 60793  89.0543 348.1019 0069242 128.3986 232.3447 14.14016445  3358
CZ-6A DEB               
1 60794U 24140FV  24248.76555880  .00046963  00000+0  10483-1 0  9995
2 60794  89.0503 347.8905 0114146 337.8260  21.8032 14.52580764  2364
CZ-6A DEB               
1 60795U 24140FW  24248.75455458  .00006869  00000+0  34975-2 0  9999
2 60795  89.0310 347.9970 0072443 145.9396 214.6472 14.14330713  3350
CZ-6A DEB               
1 60796U 24140FX  24248.74314744  .00000523  00000+0  30092-3 0  9999
2 60796  88.9827 347.8471 0114480 139.0955 221.8888 14.04414609  3335
CZ-6A DEB               
1 60797U 24140FY  24248.66826151  .00008562  00000+0  25728-2 0  9991
2 60797  88.8755 347.1702 0107547 248.9120 110.0556 14.39285124  3400
CZ-6A DEB               
1 60798U 24140FZ  24248.72619570  .00001406  00000+0  73680-3 0  9995
2 60798  89.0743 348.2025 0078368 127.2076 233.6296 14.12165046  3356
CZ-6A DEB               
1 60799U 24140GA  24249.22770311  .00001594  00000+0  35399-3 0  9996
2 60799  88.9792 347.4977 0114000 322.0433  37.2778 14.52622376  3522
CZ-6A DEB               
1 60800U 24140GB  24248.72598915  .00001154  00000+0  60310-3 0  9994
2 60800  89.0259 347.9895 0078083 127.9586 232.8689 14.12168673  3367
CZ-6A DEB               
1 60801U 24140GC  24248.72018889  .00008421  00000+0  11425-2 0  9998
2 60801  88.9383 347.2767 0182594 319.1538  39.6109 14.67838677  3481
CZ-6A DEB               
1 60802U 24140GD  24248.71764205  .00001912  00000+0  39962-3 0  9993
2 60802  89.0588 347.9201 0132950 337.4178  22.1212 14.54030855  3452
CZ-6A DEB               
1 60803U 24140GE  24248.69828502  .00034127  00000+0  33785-2 0  9992
2 60803  89.6603 350.6570 0212483 312.8144  45.5382 14.76299910  3503
CZ-6A DEB               
1 60804U 24140GF  24248.71815929  .00001748  00000+0  91115-3 0  9990
2 60804  89.0628 348.1507 0078200 121.0692 239.8200 14.12565763  2476
CZ-6A DEB               
1 60805U 24140GG  24248.85222596  .00003970  00000+0  22848-2 0  9993
2 60805  89.3275 349.3231 0108402 125.0316 236.1097 14.06119011  3378
CZ-6A DEB               
1 60806U 24140GH  24248.78592321  .00860381  18845-3  41281-2 0  9991
2 60806  89.4329 349.4771 0273673 331.5092  27.1429 15.44585699  3647
CZ-6A DEB               
1 60807U 24140GJ  24248.72269480  .00001898  00000+0  10470-2 0  9999
2 60807  89.0315 348.0325 0094131 127.5337 233.4447 14.08895553  3367
CZ-6A DEB               
1 60808U 24140GK  24248.75434467  .00001795  00000+0  40247-3 0  9994
2 60808  89.0857 348.0493 0115190 329.0217  30.4229 14.52183785  3460
CZ-6A DEB               
1 60809U 24140GL  24247.72627718  .13961218  00000+0  11478+0 0  9993
2 60809  89.0762 348.3908 0082127 326.4415  33.1664 15.60426066  3458
CZ-6A DEB               
1 60810U 24140GM  24248.69267477  .00003209  00000+0  19178-2 0  9995
2 60810  89.4058 349.6933 0119197 140.6167 220.3757 14.03462596  3369
CZ-6A DEB               
1 60811U 24140GN  24248.73782327  .00022046  00000+0  31235-2 0  9995
2 60811  88.6983 346.1537 0172569 311.6712  46.9838 14.67175359  3526
CZ-6A DEB               
1 60812U 24140GP  24248.83949226  .00001794  00000+0  49034-3 0  9994
2 60812  89.0014 347.6937 0089903 346.1957  13.6788 14.44509224  3487
CZ-6A DEB               
1 60813U 24140GQ  24248.68202972  .00008514  00000+0  36281-2 0  9994
2 60813  88.9394 347.5416 0027981  87.8472 272.5924 14.24829872  3421
CZ-6A DEB               
1 60814U 24140GR  24249.22068205  .00004018  00000+0  22259-2 0  9990
2 60814  89.0889 348.2340 0093429 135.6429 225.2290 14.08901281  3339
CZ-6A DEB               
1 60815U 24140GS  24248.64782131  .00003359  00000+0  35681-2 0  9997
2 60815  88.5684 346.6679 0595083 122.0041 244.0346 13.15725985  3048
CZ-6A DEB               
1 60816U 24140GT  24248.78614430  .00009253  00000+0  38197-2 0  9993
2 60816  89.0668 348.0859 0014698 175.1663 184.9676 14.26629402  3329
CZ-6A DEB               
1 60817U 24140GU  24248.69547437  .00008185  00000+0  44455-2 0  9993
2 60817  89.1421 348.5110 0086714 138.4296 222.3526 14.10327418  3275
CZ-6A DEB               
1 60818U 24140GV  24248.75392230  .00018760  00000+0  60343-2 0  9994
2 60818  88.9082 347.3130 0043580 313.0864  46.6692 14.38695711  3344
CZ-6A DEB               
1 60819U 24140GW  24248.76859874  .00002233  00000+0  36324-3 0  9999
2 60819  89.0558 347.8562 0166983 331.4565  27.7579 14.61829260  3274
CZ-6A DEB               
1 60820U 24140GX  24248.67412606  .00007364  00000+0  33246-2 0  9998
2 60820  89.0152 347.8975 0034276 146.6969 213.6389 14.21722193  3185
CZ-6A DEB               
1 60821U 24140GY  24249.16281671  .00066136  00000+0  15899-1 0  9995
2 60821  89.0222 347.7386 0092157 332.1462  27.4827 14.50405614  3312
CZ-6A DEB               
1 60822U 24140GZ  24248.71718129  .00001363  00000+0  31409-3 0  9997
2 60822  89.0284 347.7979 0118111 340.6855  18.9893 14.50587709  3244
CZ-6A DEB               
1 60823U 24140HA  24248.69536479  .00004980  00000+0  39028-2 0  9993
2 60823  89.0579 348.2937 0240662 125.5066 236.8812 13.79217026  3090
CZ-6A DEB               
1 60824U 24140HB  24248.73293356  .00059774  00000+0  46778-2 0  9994
2 60824  89.2336 348.6238 0255225 272.6429  84.5605 14.78557655  3329
CZ-6A DEB               
1 60825U 24140HC  24248.71361998  .00005180  00000+0  16979-2 0  9993
2 60825  88.8104 346.8842 0066757   7.3338 352.8821 14.37026215  3230
CZ-6A DEB               
1 60826U 24140HD  24248.71180581  .00005327  00000+0  23323-2 0  9995
2 60826  88.9960 347.7988 0033710  93.8061 266.6986 14.23301331  3200
CZ-6A DEB               
1 60827U 24140HE  24248.36509614  .00005771  00000+0  22115-2 0  9990
2 60827  89.1021 348.2756 0039404 232.2267 127.5357 14.30046936  2294
CZ-6A DEB               
1 60828U 24140HF  24248.30045791  .00003501  00000+0  10537-2 0  9990
2 60828  89.0969 348.2081 0086662   5.0547 355.1508 14.40273987  3186
CZ-6A DEB               
1 60829U 24140HG  24248.84153478  .00071793  00000+0  53183-2 0  9994
2 60829  89.2723 348.7933 0257151 273.2902  83.8936 14.80092793  2272
CZ-6A DEB               
1 60830U 24140HH  24248.83846934  .00001927  00000+0  12582-2 0  9991
2 60830  88.9264 347.6282 0151812 132.3170 229.0987 13.96420128  3166
CZ-6A DEB               
1 60831U 24140HJ  24249.22005617  .00003164  00000+0  15764-2 0  9991
2 60831  89.0245 347.9081 0062439 126.0461 234.6534 14.15708802  3268
CZ-6A DEB               
1 60832U 24140HK  24249.07020590  .00085916  00000+0  80766-2 0  9991
2 60832  89.5979 350.3779 0319425  10.0378 350.7012 14.62122825  2435
CZ-6A DEB               
1 60833U 24140HL  24248.83808923  .00068632  00000+0  74420-2 0  9995
2 60833  89.0686 347.8581 0206457 331.4061  27.5956 14.73540817  2306
CZ-6A DEB               
1 60834U 24140HM  24248.73893151  .00000437  00000+0  24925-3 0  9997
2 60834  89.0417 348.1035 0113519 134.3744 226.6806 14.04619623  3179
CZ-6A DEB               
1 60835U 24140HN  24248.79321239  .00162673  00000+0  18698-1 0  9996
2 60835  89.1129 348.0843 0180511 326.6319  32.3624 14.74000503  3322
CZ-6A DEB               
1 60836U 24140HP  24248.72226120  .00017377  00000+0  37195-2 0  9997
2 60836  89.0158 347.7209 0121924 330.5010  28.9355 14.54081682  2529
CZ-6A DEB               
1 60837U 24140HQ  24248.96390589  .00004265  00000+0  21727-2 0  9991
2 60837  89.1981 348.7138 0067367 136.7781 223.8721 14.14436135  3233
CZ-6A DEB               
1 60838U 24140HR  24248.69036024  .00009829  00000+0  27072-2 0  9993
2 60838  89.1063 348.1873 0075430 301.1797  58.2027 14.45149682  3253
CZ-6A DEB               
1 60839U 24140HS  24248.74617495  .00002532  00000+0  21072-2 0  9995
2 60839  88.9769 347.9762 0265286 129.7781 232.7076 13.73296524  3111
CZ-6A DEB               
1 60840U 24140HT  24248.73113138  .00018703  00000+0  32974-2 0  9991
2 60840  89.0138 347.6751 0146995 322.2496  36.8472 14.60560345  3315
CZ-6A DEB               
1 60841U 24140HU  24248.67042759  .00010501  00000+0  50088-2 0  9999
2 60841  89.0264 347.9669 0049367 134.4187 226.1060 14.18514355  3233
CZ-6A DEB               
1 60842U 24140HV  24248.77552247  .00018355  00000+0  24546-2 0  9994
2 60842  88.9110 347.1385 0180186 307.4458  51.0481 14.68689238  3350
CZ-6A DEB               
1 60843U 24140HW  24248.68175499  .00007482  00000+0  38120-2 0  9997
2 60843  89.0384 348.0378 0068391 144.7394 215.8346 14.14446265  3231
CZ-6A DEB               
1 60844U 24140HX  24248.66891249  .00002078  00000+0  76048-3 0  9992
2 60844  88.6785 346.3293 0035231 250.5240 109.2149 14.32253306  3286
CZ-6A DEB               
1 60845U 24140HY  24248.84659969  .00002067  00000+0  43410-3 0  9999
2 60845  89.0603 347.9106 0124968 326.6914  32.6474 14.54466942  3365
CZ-6A DEB               
1 60846U 24140HZ  24244.31637008  .01584163  00000+0  16287+0 0  9999
2 60846  88.8553 347.5294 0131126 336.9271  22.6095 14.80744344  1646
CZ-6A DEB               
1 60847U 24140JA  24248.71510678  .00023027  00000+0  94066-2 0  9991
2 60847  88.9870 347.7450 0032951 203.5388 156.4300 14.26880092  3165
CZ-6A DEB               
1 60848U 24140JB  24248.71151351  .00041748  00000+0  90273-2 0  9997
2 60848  88.7461 346.5185 0184998 248.4402 109.7001 14.47933764  3219
